NORAD_CAT_ID,OBJECT_NAME,OBJECT_TYPE,EPOCH,MEAN_MOTION,ECCENTRICITY,INCLINATION,RA_OF_ASC_NODE,ARG_OF_PERICENTER,MEAN_ANOMALY,BSTAR,MEAN_MOTION_DOT,MEAN_MOTION_DDOT,TLE_LINE0,TLE_LINE1,TLE_LINE2,SEMIMAJOR_AXIS,PERIOD,APOGEE,PERIGEE,DECAYED
53986.0,STARLINK-5119,PAYLOAD,2023-08-29 09:50:57,15.08843391,0.0001375,53.2184,28.5612,91.9399,268.175,-7.4274e-07,-3e-06,0.0,0 STARLINK-5119,1 53986U 22125Y   23241.41039233 -.00000300  00000-0 -74274-6 0  9995,2 53986  53.2184  28.5612 0001375  91.9399 268.1750 15.08843391 50293,6917.87,95.437,540.686,538.784,0.0
53986.0,STARLINK-5119,PAYLOAD,2023-08-29 17:47:53,15.08845521,0.0001433,53.2189,27.0743,79.9135,280.2019,8.1735e-05,1.013e-05,0.0,0 STARLINK-5119,1 53986U 22125Y   23241.74158843  .00001013  00000-0  81735-4 0  9998,2 53986  53.2189  27.0743 0001433  79.9135 280.2019 15.08845521 50263,6917.864,95.437,540.72,538.737,0.0
53986.0,STARLINK-5119,PAYLOAD,2023-08-30 16:03:17,15.08846558,0.0001295,53.2186,22.9115,91.6159,268.4982,4.1958e-05,3.8e-06,0.0,0 STARLINK-5119,1 53986U 22125Y   23242.66894751  .00000380  00000-0  41958-4 0  9994,2 53986  53.2186  22.9115 0001295  91.6159 268.4982 15.08846558 50482,6917.86,95.437,540.621,538.829,0.0
53986.0,STARLINK-5119,PAYLOAD,2023-08-30 17:38:39,15.08850596,0.0001217,53.2187,22.6142,87.5694,272.5437,7.4874e-05,9.04e-06,0.0,0 STARLINK-5119,1 53986U 22125Y   23242.73518372  .00000904  00000-0  74874-4 0  9999,2 53986  53.2187  22.6142 0001217  87.5694 272.5437 15.08850596 50413,6917.848,95.437,540.555,538.871,0.0
53986.0,STARLINK-5119,PAYLOAD,2023-08-31 09:32:32,15.08835836,0.0001129,53.2183,19.6421,85.8253,274.2868,2.7928e-05,1.57e-06,0.0,0 STARLINK-5119,1 53986U 22125Y   23243.39759488  .00000157  00000-0  27928-4 0  9995,2 53986  53.2183  19.6421 0001129  85.8253 274.2868 15.08835836 50595,6917.893,95.438,540.539,538.977,0.0
53986.0,STARLINK-5119,PAYLOAD,2023-08-31 17:29:27,15.08845235,0.0001027,53.2187,18.1556,77.4588,282.6519,6.5046e-05,7.48e-06,0.0,0 STARLINK-5119,1 53986U 22125Y   23243.72878835  .00000748  00000-0  65046-4 0  9999,2 53986  53.2187  18.1556 0001027  77.4588 282.6519 15.08845235 50643,6917.864,95.437,540.44,539.019,0.0
53986.0,STARLINK-5119,PAYLOAD,2023-09-01 09:23:19,15.08831874,9.04e-05,53.2186,15.1849,53.1962,306.9113,6.6306e-05,7.67e-06,0.0,0 STARLINK-5119,1 53986U 22125Y   23244.39119881  .00000767  00000-0  66306-4 0  9993,2 53986  53.2186  15.1849 0000904  53.1962 306.9113 15.08831874 50749,6917.905,95.438,540.396,539.145,0.0
53986.0,STARLINK-5119,PAYLOAD,2023-09-01 17:20:14,15.08850558,0.0001385,53.2183,13.6939,90.8287,269.2864,9.5755e-05,1.237e-05,0.0,0 STARLINK-5119,1 53986U 22125Y   23244.72238518  .00001237  00000-0  95755-4 0  9992,2 53986  53.2183  13.6939 0001385  90.8287 269.2864 15.08850558 50790,6917.848,95.437,540.671,538.755,0.0
53986.0,STARLINK-5119,PAYLOAD,2023-09-02 12:24:52,15.08837993,0.0001662,53.2175,10.1231,114.4121,245.7045,9.7019e-05,1.256e-05,0.0,0 STARLINK-5119,1 53986U 22125Y   23245.51727414  .00001256  00000-0  97019-4 0  9994,2 53986  53.2175  10.1231 0001662 114.4121 245.7045 15.08837993 50839,6917.887,95.438,540.901,538.602,0.0
53986.0,STARLINK-5119,PAYLOAD,2023-09-02 17:11:01,15.08843459,0.0001458,53.2184,9.2335,79.983,280.1326,0.00012507,1.703e-05,0.0,0 STARLINK-5119,1 53986U 22125Y   23245.71599175  .00001703  00000-0  12507-3 0  9992,2 53986  53.2184   9.2335 0001458  79.9830 280.1326 15.08843459 50949,6917.87,95.437,540.743,538.726,0.0
53986.0,STARLINK-5119,PAYLOAD,2023-09-03 07:29:29,15.08845263,0.0001361,53.2184,6.5576,86.551,273.5637,3.9215e-05,3.36e-06,0.0,0 STARLINK-5119,1 53986U 22125Y   23246.31215067  .00000336  00000-0  39215-4 0  9991,2 53986  53.2184   6.5576 0001361  86.5510 273.5637 15.08845263 50955,6917.864,95.437,540.671,538.788,0.0
53986.0,STARLINK-5119,PAYLOAD,2023-09-04 07:20:17,15.08835617,0.0001298,53.2179,2.0973,83.6988,276.4152,-3.1257e-05,-7.85e-06,0.0,0 STARLINK-5119,1 53986U 22125Y   23247.30575542 -.00000785  00000-0 -31257-4 0  9996,2 53986  53.2179   2.0973 0001298  83.6988 276.4152 15.08835617 51189,6917.894,95.438,540.657,538.861,0.0
53986.0,STARLINK-5119,PAYLOAD,2023-09-05 10:21:50,15.08842158,0.0001245,53.2191,357.0432,86.4993,273.6141,4.4088e-05,4.14e-06,0.0,0 STARLINK-5119,1 53986U 22125Y   23248.43183751  .00000414  00000-0  44088-4 0  9991,2 53986  53.2191 357.0432 0001245  86.4993 273.6141 15.08842158 51359,6917.874,95.437,540.6,538.878,0.0
53986.0,STARLINK-5119,PAYLOAD,2023-09-06 07:01:51,15.08841379,0.0001281,53.2193,353.1776,86.9034,273.2104,0.00017379,2.479e-05,0.0,0 STARLINK-5119,1 53986U 22125Y   23249.29295514  .00002479  00000-0  17379-3 0  9992,2 53986  53.2193 353.1776 0001281  86.9034 273.2104 15.08841379 51405,6917.876,95.437,540.627,538.855,0.0
53986.0,STARLINK-5119,PAYLOAD,2023-09-07 00:31:05,15.0884609,0.000129,53.2188,349.9073,84.8795,275.2344,0.00015694,2.211e-05,0.0,0 STARLINK-5119,1 53986U 22125Y   23250.02159223  .00002211  00000-0  15694-3 0  9993,2 53986  53.2188 349.9073 0001290  84.8795 275.2344 15.08846090 51596,6917.862,95.437,540.619,538.834,0.0
53986.0,STARLINK-5119,PAYLOAD,2023-09-07 06:52:38,15.0884459,0.0001662,53.2187,348.7168,95.9554,264.1628,9.0296e-05,1.149e-05,0.0,0 STARLINK-5119,1 53986U 22125Y   23250.28655574  .00001149  00000-0  90296-4 0  9992,2 53986  53.2187 348.7168 0001662  95.9554 264.1628 15.08844590 51557,6917.866,95.437,540.881,538.582,0.0
53986.0,STARLINK-5119,PAYLOAD,2023-09-08 09:54:14,15.08760612,0.0001557,53.2187,343.66,133.557,226.5551,0.0011553,0.00018107,0.0,0 STARLINK-5119,1 53986U 22125Y   23251.41266580  .00018107  00000-0  11553-2 0  9992,2 53986  53.2187 343.6600 0001557 133.5570 226.5551 15.08760612 51809,6918.123,95.443,541.065,538.911,0.0
53986.0,STARLINK-5119,PAYLOAD,2023-09-08 13:04:57,15.08871874,0.0001422,53.2193,343.0666,113.6263,246.4878,-0.00042222,-7.007e-05,0.0,0 STARLINK-5119,1 53986U 22125Y   23251.54510829 -.00007007  00000-0 -42222-3 0  9991,2 53986  53.2193 343.0666 0001422 113.6263 246.4878 15.08871874 51740,6917.783,95.436,540.632,538.664,0.0
53986.0,STARLINK-5119,PAYLOAD,2023-09-08 16:15:43,15.08879571,0.0001747,53.2186,342.4707,122.7673,237.3488,-0.00051289,-8.45e-05,0.0,0 STARLINK-5119,1 53986U 22125Y   23251.67758183 -.00008450  00000-0 -51289-3 0  9998,2 53986  53.2186 342.4707 0001747 122.7673 237.3488 15.08879571 51846,6917.759,95.435,540.833,538.416,0.0
53986.0,STARLINK-5119,PAYLOAD,2023-09-08 22:37:17,15.08831734,0.0001339,53.2188,341.2814,96.56,263.5545,7.7532e-05,9.46e-06,0.0,0 STARLINK-5119,1 53986U 22125Y   23251.94256261  .00000946  00000-0  77532-4 0  9998,2 53986  53.2188 341.2814 0001339  96.5600 263.5545 15.08831734 51887,6917.906,95.438,540.697,538.844,0.0
53986.0,STARLINK-5119,PAYLOAD,2023-09-09 12:55:45,15.08838562,0.000105,53.2195,338.6082,85.6023,274.5089,0.00010843,1.438e-05,0.0,0 STARLINK-5119,1 53986U 22125Y   23252.53872173  .00001438  00000-0  10843-3 0  9998,2 53986  53.2195 338.6082 0001050  85.6023 274.5089 15.08838562 51892,6917.885,95.438,540.476,539.023,0.0
53986.0,STARLINK-5119,PAYLOAD,2023-09-09 22:28:04,15.0884335,0.0001288,53.219,336.8232,90.5828,269.5311,9.2622e-05,1.187e-05,0.0,0 STARLINK-5119,1 53986U 22125Y   23252.93616116  .00001187  00000-0  92622-4 0  9992,2 53986  53.2190 336.8232 0001288  90.5828 269.5311 15.08843350 52035,6917.87,95.437,540.626,538.844,0.0
53986.0,STARLINK-5119,PAYLOAD,2023-09-10 11:11:09,15.08842417,0.0001374,53.2196,334.4453,93.2462,266.8688,9.0905e-05,1.159e-05,0.0,0 STARLINK-5119,1 53986U 22125Y   23253.46608269  .00001159  00000-0  90905-4 0  9992,2 53986  53.2196 334.4453 0001374  93.2462 266.8688 15.08842417 52030,6917.873,95.437,540.689,538.787,0.0
53986.0,STARLINK-5119,PAYLOAD,2023-09-10 22:18:51,15.08842305,0.0001401,53.2192,332.3631,89.6319,270.4833,7.6419e-05,9.29e-06,0.0,0 STARLINK-5119,1 53986U 22125Y   23253.92976384  .00000929  00000-0  76419-4 0  9997,2 53986  53.2192 332.3631 0001401  89.6319 270.4833 15.08842305 52187,6917.873,95.437,540.708,538.769,0.0
53986.0,STARLINK-5119,PAYLOAD,2023-09-11 12:37:19,15.08839946,0.0001329,53.2193,329.6872,90.3633,269.7511,0.00015471,2.175e-05,0.0,0 STARLINK-5119,1 53986U 22125Y   23254.52592574  .00002175  00000-0  15471-3 0  9994,2 53986  53.2193 329.6872 0001329  90.3633 269.7511 15.08839946 52193,6917.881,95.438,540.665,538.826,0.0
53986.0,STARLINK-5119,PAYLOAD,2023-09-12 10:52:43,15.08849121,0.0001432,53.2183,325.5225,95.6051,264.5104,0.00013183,1.811e-05,0.0,0 STARLINK-5119,1 53986U 22125Y   23255.45327891  .00001811  00000-0  13183-3 0  9999,2 53986  53.2183 325.5225 0001432  95.6051 264.5104 15.08849121 52418,6917.853,95.437,540.708,538.727,0.0
53986.0,STARLINK-5119,PAYLOAD,2023-09-12 12:28:06,15.08851076,0.0001464,53.2188,325.2261,86.9876,273.1284,0.00015907,2.245e-05,0.0,0 STARLINK-5119,1 53986U 22125Y   23255.51951786  .00002245  00000-0  15907-3 0  9990,2 53986  53.2188 325.2261 0001464  86.9876 273.1284 15.08851076 52342,6917.847,95.437,540.724,538.699,0.0
53986.0,STARLINK-5119,PAYLOAD,2023-09-13 09:08:07,15.08847803,0.0001411,53.2175,321.3609,85.1808,274.9346,0.00021472,3.132e-05,0.0,0 STARLINK-5119,1 53986U 22125Y   23256.38063870  .00003132  00000-0  21472-3 0  9994,2 53986  53.2175 321.3609 0001411  85.1808 274.9346 15.08847803 52553,6917.857,95.437,540.698,538.745,0.0
53986.0,STARLINK-5119,PAYLOAD,2023-09-13 10:43:30,15.08852246,0.0001501,53.2177,321.0627,88.096,272.0204,0.00019314,2.788e-05,0.0,0 STARLINK-5119,1 53986U 22125Y   23256.44687607  .00002788  00000-0  19314-3 0  9999,2 53986  53.2177 321.0627 0001501  88.0960 272.0204 15.08852246 52484,6917.843,95.437,540.746,538.67,0.0
53986.0,STARLINK-5119,PAYLOAD,2023-09-13 21:51:12,15.08844348,0.0001656,53.2179,318.9803,70.6155,289.5016,4.1895e-05,3.79e-06,0.0,0 STARLINK-5119,1 53986U 22125Y   23256.91055929  .00000379  00000-0  41895-4 0  9991,2 53986  53.2179 318.9803 0001656  70.6155 289.5016 15.08844348 52557,6917.867,95.437,540.878,538.587,0.0
